CCSDS_OMM_VERS = 2.0
CREATION_DATE  = 
ORIGINATOR     = 

OBJECT_NAME    = TWILIGHT AB
OBJECT_ID      = 2026-004AB
CENTER_NAME    = EARTH
REF_FRAME      = TEME
TIME_SYSTEM    = UTC
MEAN_ELEMENT_THEORY = SGP/SGP4

EPOCH          = 2026-01-31T05:46:39.274176
MEAN_MOTION    = 14.88751299
ECCENTRICITY   = .00030146
INCLINATION    = 97.8001
RA_OF_ASC_NODE = 32.1063
ARG_OF_PERICENTER = 142.5758
MEAN_ANOMALY   = 217.5670

EPHEMERIS_TYPE = 0
CLASSIFICATION_TYPE = U
NORAD_CAT_ID   = 67388
ELEMENT_SET_NO = 999
REV_AT_EPOCH   = 292
BSTAR          = .48963306E-3
MEAN_MOTION_DOT = .4525E-4
MEAN_MOTION_DDOT = 0

CCSDS_OMM_VERS = 2.0
CREATION_DATE  = 
ORIGINATOR     = 

OBJECT_NAME    = TWILIGHT AC
OBJECT_ID      = 2026-004AC
CENTER_NAME    = EARTH
REF_FRAME      = TEME
TIME_SYSTEM    = UTC
MEAN_ELEMENT_THEORY = SGP/SGP4

EPOCH          = 2026-01-31T06:31:24.640608
MEAN_MOTION    = 15.17084695
ECCENTRICITY   = .00052891
INCLINATION    = 97.4560
RA_OF_ASC_NODE = 32.3229
ARG_OF_PERICENTER = 94.1563
MEAN_ANOMALY   = 266.0275

EPHEMERIS_TYPE = 0
CLASSIFICATION_TYPE = U
NORAD_CAT_ID   = 67389
ELEMENT_SET_NO = 999
REV_AT_EPOCH   = 298
BSTAR          = .3013837E-3
MEAN_MOTION_DOT = .5905E-4
MEAN_MOTION_DDOT = 0

CCSDS_OMM_VERS = 2.0
CREATION_DATE  = 
ORIGINATOR     = 

OBJECT_NAME    = CONNECTA IOT-16
OBJECT_ID      = 2026-004AD
CENTER_NAME    = EARTH
REF_FRAME      = TEME
TIME_SYSTEM    = UTC
MEAN_ELEMENT_THEORY = SGP/SGP4

EPOCH          = 2026-01-31T06:30:47.713248
MEAN_MOTION    = 15.17012409
ECCENTRICITY   = .00054781
INCLINATION    = 97.4563
RA_OF_ASC_NODE = 32.3249
ARG_OF_PERICENTER = 92.2438
MEAN_ANOMALY   = 267.9423

EPHEMERIS_TYPE = 0
CLASSIFICATION_TYPE = U
NORAD_CAT_ID   = 67390
ELEMENT_SET_NO = 999
REV_AT_EPOCH   = 298
BSTAR          = -.15742262E-3
MEAN_MOTION_DOT = -.3175E-4
MEAN_MOTION_DDOT = 0

CCSDS_OMM_VERS = 2.0
CREATION_DATE  = 
ORIGINATOR     = 

OBJECT_NAME    = TWILIGHT AE
OBJECT_ID      = 2026-004AE
CENTER_NAME    = EARTH
REF_FRAME      = TEME
TIME_SYSTEM    = UTC
MEAN_ELEMENT_THEORY = SGP/SGP4

EPOCH          = 2026-01-31T06:27:13.239072
MEAN_MOTION    = 15.17231935
ECCENTRICITY   = .00068751
INCLINATION    = 97.4512
RA_OF_ASC_NODE = 32.3146
ARG_OF_PERICENTER = 86.7683
MEAN_ANOMALY   = 273.4337

EPHEMERIS_TYPE = 0
CLASSIFICATION_TYPE = U
NORAD_CAT_ID   = 67391
ELEMENT_SET_NO = 999
REV_AT_EPOCH   = 298
BSTAR          = .25212014E-3
MEAN_MOTION_DOT = .4951E-4
MEAN_MOTION_DDOT = 0

CCSDS_OMM_VERS = 2.0
CREATION_DATE  = 
ORIGINATOR     = 

OBJECT_NAME    = TWILIGHT AF
OBJECT_ID      = 2026-004AF
CENTER_NAME    = EARTH
REF_FRAME      = TEME
TIME_SYSTEM    = UTC
MEAN_ELEMENT_THEORY = SGP/SGP4

EPOCH          = 2026-01-31T06:20:53.468736
MEAN_MOTION    = 15.17904464
ECCENTRICITY   = .00077675
INCLINATION    = 97.4407
RA_OF_ASC_NODE = 32.2935
ARG_OF_PERICENTER = 85.5462
MEAN_ANOMALY   = 274.6659

EPHEMERIS_TYPE = 0
CLASSIFICATION_TYPE = U
NORAD_CAT_ID   = 67392
ELEMENT_SET_NO = 999
REV_AT_EPOCH   = 298
BSTAR          = -.28850667E-2
MEAN_MOTION_DOT = -.58106E-3
MEAN_MOTION_DDOT = 0

CCSDS_OMM_VERS = 2.0
CREATION_DATE  = 
ORIGINATOR     = 

OBJECT_NAME    = TWILIGHT AG
OBJECT_ID      = 2026-004AG
CENTER_NAME    = EARTH
REF_FRAME      = TEME
TIME_SYSTEM    = UTC
MEAN_ELEMENT_THEORY = SGP/SGP4

EPOCH          = 2026-01-31T06:19:37.780608
MEAN_MOTION    = 15.17940671
ECCENTRICITY   = .00074325
INCLINATION    = 97.4556
RA_OF_ASC_NODE = 32.3353
ARG_OF_PERICENTER = 90.6815
MEAN_ANOMALY   = 269.5270

EPHEMERIS_TYPE = 0
CLASSIFICATION_TYPE = U
NORAD_CAT_ID   = 67393
ELEMENT_SET_NO = 999
REV_AT_EPOCH   = 298
BSTAR          = .77907089E-3
MEAN_MOTION_DOT = .15778E-3
MEAN_MOTION_DDOT = 0

CCSDS_OMM_VERS = 2.0
CREATION_DATE  = 
ORIGINATOR     = 

OBJECT_NAME    = TWILIGHT AH
OBJECT_ID      = 2026-004AH
CENTER_NAME    = EARTH
REF_FRAME      = TEME
TIME_SYSTEM    = UTC
MEAN_ELEMENT_THEORY = SGP/SGP4

EPOCH          = 2026-01-31T06:09:31.513536
MEAN_MOTION    = 15.18209700
ECCENTRICITY   = .00109392
INCLINATION    = 97.4457
RA_OF_ASC_NODE = 32.3162
ARG_OF_PERICENTER = 93.6841
MEAN_ANOMALY   = 266.5645

EPHEMERIS_TYPE = 0
CLASSIFICATION_TYPE = U
NORAD_CAT_ID   = 67394
ELEMENT_SET_NO = 999
REV_AT_EPOCH   = 298
BSTAR          = .27443674E-3
MEAN_MOTION_DOT = .5555E-4
MEAN_MOTION_DDOT = 0

CCSDS_OMM_VERS = 2.0
CREATION_DATE  = 
ORIGINATOR     = 

OBJECT_NAME    = TWILIGHT AJ
OBJECT_ID      = 2026-004AJ
CENTER_NAME    = EARTH
REF_FRAME      = TEME
TIME_SYSTEM    = UTC
MEAN_ELEMENT_THEORY = SGP/SGP4

EPOCH          = 2026-01-31T06:03:36.191808
MEAN_MOTION    = 14.87785735
ECCENTRICITY   = .00044746
INCLINATION    = 97.7999
RA_OF_ASC_NODE = 32.0922
ARG_OF_PERICENTER = 205.4070
MEAN_ANOMALY   = 154.6927

EPHEMERIS_TYPE = 0
CLASSIFICATION_TYPE = U
NORAD_CAT_ID   = 67395
ELEMENT_SET_NO = 999
REV_AT_EPOCH   = 291
BSTAR          = .20448641E-3
MEAN_MOTION_DOT = .1813E-4
MEAN_MOTION_DDOT = 0

CCSDS_OMM_VERS = 2.0
CREATION_DATE  = 
ORIGINATOR     = 

OBJECT_NAME    = TWILIGHT AK
OBJECT_ID      = 2026-004AK
CENTER_NAME    = EARTH
REF_FRAME      = TEME
TIME_SYSTEM    = UTC
MEAN_ELEMENT_THEORY = SGP/SGP4

EPOCH          = 2026-01-31T06:17:06.800064
MEAN_MOTION    = 15.17770663
ECCENTRICITY   = .00089405
INCLINATION    = 97.4495
RA_OF_ASC_NODE = 32.3192
ARG_OF_PERICENTER = 92.0844
MEAN_ANOMALY   = 268.1414

EPHEMERIS_TYPE = 0
CLASSIFICATION_TYPE = U
NORAD_CAT_ID   = 67396
ELEMENT_SET_NO = 999
REV_AT_EPOCH   = 298
BSTAR          = .27583894E-3
MEAN_MOTION_DOT = .551E-4
MEAN_MOTION_DDOT = 0

CCSDS_OMM_VERS = 2.0
CREATION_DATE  = 
ORIGINATOR     = 

OBJECT_NAME    = TWILIGHT AL
OBJECT_ID      = 2026-004AL
CENTER_NAME    = EARTH
REF_FRAME      = TEME
TIME_SYSTEM    = UTC
MEAN_ELEMENT_THEORY = SGP/SGP4

EPOCH          = 2026-01-31T06:20:05.515872
MEAN_MOTION    = 15.17737318
ECCENTRICITY   = .0007985
INCLINATION    = 97.4515
RA_OF_ASC_NODE = 32.3228
ARG_OF_PERICENTER = 95.2730
MEAN_ANOMALY   = 264.9415

EPHEMERIS_TYPE = 0
CLASSIFICATION_TYPE = U
NORAD_CAT_ID   = 67397
ELEMENT_SET_NO = 999
REV_AT_EPOCH   = 298
BSTAR          = .49129703E-3
MEAN_MOTION_DOT = .9861E-4
MEAN_MOTION_DDOT = 0

CCSDS_OMM_VERS = 2.0
CREATION_DATE  = 
ORIGINATOR     = 

OBJECT_NAME    = TWILIGHT AM
OBJECT_ID      = 2026-004AM
CENTER_NAME    = EARTH
REF_FRAME      = TEME
TIME_SYSTEM    = UTC
MEAN_ELEMENT_THEORY = SGP/SGP4

EPOCH          = 2026-01-31T06:16:00.952032
MEAN_MOTION    = 15.17888662
ECCENTRICITY   = .00088783
INCLINATION    = 97.4552
RA_OF_ASC_NODE = 32.3354
ARG_OF_PERICENTER = 101.3661
MEAN_ANOMALY   = 258.8571

EPHEMERIS_TYPE = 0
CLASSIFICATION_TYPE = U
NORAD_CAT_ID   = 67398
ELEMENT_SET_NO = 999
REV_AT_EPOCH   = 298
BSTAR          = .28690295E-3
MEAN_MOTION_DOT = .5753E-4
MEAN_MOTION_DDOT = 0

CCSDS_OMM_VERS = 2.0
CREATION_DATE  = 
ORIGINATOR     = 

OBJECT_NAME    = TWILIGHT AN
OBJECT_ID      = 2026-004AN
CENTER_NAME    = EARTH
REF_FRAME      = TEME
TIME_SYSTEM    = UTC
MEAN_ELEMENT_THEORY = SGP/SGP4

EPOCH          = 2026-01-31T06:13:07.068576
MEAN_MOTION    = 15.18043850
ECCENTRICITY   = .00096097
INCLINATION    = 97.4542
RA_OF_ASC_NODE = 32.3350
ARG_OF_PERICENTER = 101.1176
MEAN_ANOMALY   = 259.1139

EPHEMERIS_TYPE = 0
CLASSIFICATION_TYPE = U
NORAD_CAT_ID   = 67399
ELEMENT_SET_NO = 999
REV_AT_EPOCH   = 298
BSTAR          = .30422029E-3
MEAN_MOTION_DOT = .6134E-4
MEAN_MOTION_DDOT = 0

