TWILIGHT AB             
1 67388U 26004AB  26031.24073234  .00004525  00000+0  48963-3 0  9999
2 67388  97.8001  32.1063 0003014 142.5758 217.5670 14.88751299  2929
TWILIGHT AC             
1 67389U 26004AC  26031.27181297  .00005905  00000+0  30138-3 0  9990
2 67389  97.4560  32.3229 0005289  94.1563 266.0275 15.17084695  2982
CONNECTA IOT-16         
1 67390U 26004AD  26031.27138557 -.00003175  00000+0 -15742-3 0  9996
2 67390  97.4563  32.3249 0005478  92.2438 267.9423 15.17012409  2988
TWILIGHT AE             
1 67391U 26004AE  26031.26890323  .00004951  00000+0  25212-3 0  9996
2 67391  97.4512  32.3146 0006875  86.7683 273.4337 15.17231935  2984
TWILIGHT AF             
1 67392U 26004AF  26031.26450774 -.00058106  00000+0 -28851-2 0  9993
2 67392  97.4407  32.2935 0007767  85.5462 274.6659 15.17904464  2980
TWILIGHT AG             
1 67393U 26004AG  26031.26363172  .00015778  00000+0  77907-3 0  9992
2 67393  97.4556  32.3353 0007432  90.6815 269.5270 15.17940671  2981
TWILIGHT AH             
1 67394U 26004AH  26031.25661474  .00005555  00000+0  27444-3 0  9991
2 67394  97.4457  32.3162 0010939  93.6841 266.5645 15.18209700  2983
TWILIGHT AJ             
1 67395U 26004AJ  26031.25250222  .00001813  00000+0  20449-3 0  9998
2 67395  97.7999  32.0922 0004474 205.4070 154.6927 14.87785735  2918
TWILIGHT AK             
1 67396U 26004AK  26031.26188426  .00005510  00000+0  27584-3 0  9991
2 67396  97.4495  32.3192 0008940  92.0844 268.1414 15.17770663  2987
TWILIGHT AL             
1 67397U 26004AL  26031.26395273  .00009861  00000+0  49130-3 0  9996
2 67397  97.4515  32.3228 0007985  95.2730 264.9415 15.17737318  2983
TWILIGHT AM             
1 67398U 26004AM  26031.26112213  .00005753  00000+0  28690-3 0  9992
2 67398  97.4552  32.3354 0008878 101.3661 258.8571 15.17888662  2983
TWILIGHT AN             
1 67399U 26004AN  26031.25910959  .00006134  00000+0  30422-3 0  9995
2 67399  97.4542  32.3350 0009609 101.1176 259.1139 15.18043850  2988
